COSMOS 2425 (716)       
1 29670U 06062A   18172.09923941 -.00000056  00000-0  10000-3 0  9990
2 29670  65.2788 292.4041 0020424 348.7131 204.5284  2.13105041 89394
COSMOS 2426 (717)       
1 29671U 06062B   18171.59150672 -.00000050  00000-0  10000-3 0  9992
2 29671  65.2956 292.5199 0018971 163.2257 216.2158  2.13102760 89395
COSMOS 2433 (720)       
1 32275U 07052A   18171.44807593 -.00000074  00000-0  10000-3 0  9997
2 32275  65.6882  53.2530 0002137 300.0139 304.9892  2.13104553 82899
COSMOS 2432 (719)       
1 32276U 07052B   18171.86321970 -.00000075  00000-0  10000-3 0  9995
2 32276  65.7020  53.3152 0012123 340.4863 174.9731  2.13104062 82908
COSMOS 2434 (721)       
1 32393U 07065A   18172.06098819 -.00000056  00000-0  00000+0 0  9999
2 32393  64.8919 291.3785 0005301 114.0365 129.2260  2.13103014 81616
COSMOS 2436 (723)       
1 32395U 07065C   18171.64515481 -.00000052  00000-0  10000-3 0  9994
2 32395  64.9022 291.4434 0014455   5.0040 329.7609  2.13104420 81532
COSMOS 2456 (730)       
1 36111U 09070A   18171.63913052  .00000094  00000-0  00000-0 0  9998
2 36111  64.1868 170.9840 0006692 300.3937 151.4955  2.13103019 66275
COSMOS 2457 (733)       
1 36112U 09070B   18171.89459287  .00000095  00000-0  00000-0 0  9993
2 36112  64.1689 170.8856 0005756 195.9405 218.7920  2.13101634 66282
COSMOS 2458 (734)       
1 36113U 09070C   18171.66112392  .00000094  00000-0  10000-3 0  9995
2 36113  64.1744 170.9048 0003062 314.2656 329.0434  2.13096839 66276
COSMOS 2459 (731)       
1 36400U 10007A   18171.87204860 -.00000075  00000-0  10000-3 0  9991
2 36400  65.5987  52.2976 0028107 353.8907  75.2862  2.13102307 64637
COSMOS 2461 (735)       
1 36401U 10007B   18172.13591207 -.00000076  00000-0  10000-3 0  9997
2 36401  65.5900  52.2653 0008307  59.0633 123.1325  2.13102340 64630
COSMOS 2460 (732)       
1 36402U 10007C   18171.79791904 -.00000075  00000-0  10000-3 0  9994
2 36402  65.5819  52.2432 0001968  26.4545 297.0608  2.13101682 64623
COSMOS 2464 (736)       
1 37139U 10041C   18171.54868928 -.00000051  00000-0  00000-0 0  9994
2 37139  64.4966 291.2000 0023388  15.3499  62.6933  2.13102775 60697
COSMOS 2471 (701K)      
1 37372U 11009A   18172.26779713 -.00000076  00000-0  00000+0 0  9997
2 37372  65.5782  52.1741 0007095 236.6358 231.3977  2.13107600 56914
COSMOS 2474 (742)       
1 37829U 11055A   18171.65350780  .00000094  00000-0  00000-0 0  9996
2 37829  64.5107 171.7020 0011050 254.0310  67.0249  2.13101977 52268
COSMOS 2476 (744)       
1 37867U 11064A   18171.62994538  .00000094  00000-0  00000-0 0  9990
2 37867  64.4906 171.7651 0020603 245.7377 103.2870  2.13102036 51618
COSMOS 2477 (745)       
1 37868U 11064B   18171.73179839  .00000095  00000-0  00000-0 0  9993
2 37868  64.4989 171.8097 0018448 247.3289 358.7255  2.13101864 51576
COSMOS 2475 (743)       
1 37869U 11064C   18171.58174978  .00000094  00000-0  00000-0 0  9995
2 37869  64.5062 171.8096 0023110 268.7346 178.9181  2.13102134 51584
COSMOS 2485 (747)       
1 39155U 13019A   18171.69188571  .00000095  00000-0  00000-0 0  9994
2 39155  64.6598 171.8733 0020946 241.1452 200.2712  2.13102051 40095
COSMOS 2492 (754)       
1 39620U 14012A   18172.23999149 -.00000076  00000-0  10000-3 0  9991
2 39620  65.4712  52.1143 0015273 335.2987 201.3793  2.13103372 33056
COSMOS 2500 (755)       
1 40001U 14032A   18171.80914397 -.00000076  00000-0  00000+0 0  9997
2 40001  65.4115  52.0969 0004246 206.3821 222.0361  2.13102899 31261
COSMOS 2501 (702K)      
1 40315U 14075A   18171.85624411 -.00000055  00000-0  00000+0 0  9999
2 40315  64.2213 292.4013 0015696 203.9055  62.2326  2.13098722 27661
COSMOS 2514 (751)       
1 41330U 16008A   18171.39893255 -.00000074  00000-0  00000-0 0  9990
2 41330  65.2142  52.1635 0007598 218.4669  76.1385  2.13103314 18412
COSMOS 2516 (753)       
1 41554U 16032A   18171.92604913 -.00000055  00000-0  00000+0 0  9993
2 41554  64.4419 292.2646 0011883 211.8761  18.2345  2.13101698 16031
COSMOS 2522 (752)       
1 42939U 17055A   18171.64838046 -.00000052  00000-0  00000-0 0  9990
2 42939  64.6730 292.2414 0006648 238.0714   5.4490  2.13101886  5780
